[{"OBJECT_NAME":"ONEWEB-0012","OBJECT_ID":"2019-010A","EPOCH":"2026-05-05T05:44:01.413600","MEAN_MOTION":13.16595234,"ECCENTRICITY":0.0002325,"INCLINATION":87.9098,"RA_OF_ASC_NODE":237.313,"ARG_OF_PERICENTER":102.658,"MEAN_ANOMALY":257.4811,"EPHEMERIS_TYPE":0,"CLASSIFICATION_TYPE":"U","NORAD_CAT_ID":44057,"ELEMENT_SET_NO":999,"REV_AT_EPOCH":34591,"BSTAR":0.00023372,"MEAN_MOTION_DOT":1.02e-06,"MEAN_MOTION_DDOT":0.0},{"OBJECT_NAME":"ONEWEB-0010","OBJECT_ID":"2019-010B","EPOCH":"2026-05-05T06:20:29.848704","MEAN_MOTION":13.16595218,"ECCENTRICITY":0.000174,"INCLINATION":87.9096,"RA_OF_ASC_NODE":237.3032,"ARG_OF_PERICENTER":92.5752,"MEAN_ANOMALY":267.5578,"EPHEMERIS_TYPE":0,"CLASSIFICATION_TYPE":"U","NORAD_CAT_ID":44058,"ELEMENT_SET_NO":999,"REV_AT_EPOCH":34596,"BSTAR":6.0747e-05,"MEAN_MOTION_DOT":3.6e-07,"MEAN_MOTION_DDOT":0.0},{"OBJECT_NAME":"ONEWEB-0008","OBJECT_ID":"2019-010C","EPOCH":"2026-05-05T06:56:58.238016","MEAN_MOTION":13.16593121,"ECCENTRICITY":0.0001788,"INCLINATION":87.9093,"RA_OF_ASC_NODE":237.2949,"ARG_OF_PERICENTER":109.6248,"MEAN_ANOMALY":250.5076,"EPHEMERIS_TYPE":0,"CLASSIFICATION_TYPE":"U","NORAD_CAT_ID":44059,"ELEMENT_SET_NO":999,"REV_AT_EPOCH":34608,"BSTAR":0.00021313,"MEAN_MOTION_DOT":9.4e-07,"MEAN_MOTION_DDOT":0.0},{"OBJECT_NAME":"ONEWEB-0007","OBJECT_ID":"2019-010D","EPOCH":"2026-05-05T03:19:25.132512","MEAN_MOTION":13.15548814,"ECCENTRICITY":0.0001992,"INCLINATION":87.8961,"RA_OF_ASC_NODE":267.8048,"ARG_OF_PERICENTER":90.0774,"MEAN_ANOMALY":270.0585,"EPHEMERIS_TYPE":0,"CLASSIFICATION_TYPE":"U","NORAD_CAT_ID":44060,"ELEMENT_SET_NO":999,"REV_AT_EPOCH":34571,"BSTAR":0.00010326000000000001,"MEAN_MOTION_DOT":5.2e-07,"MEAN_MOTION_DDOT":0.0},{"OBJECT_NAME":"ONEWEB-0006","OBJECT_ID":"2019-010E","EPOCH":"2026-05-05T07:04:10.393536","MEAN_MOTION":13.15548995,"ECCENTRICITY":0.0001763,"INCLINATION":87.8974,"RA_OF_ASC_NODE":267.7335,"ARG_OF_PERICENTER":92.677,"MEAN_ANOMALY":267.4563,"EPHEMERIS_TYPE":0,"CLASSIFICATION_TYPE":"U","NORAD_CAT_ID":44061,"ELEMENT_SET_NO":999,"REV_AT_EPOCH":34578,"BSTAR":0.00019769999999999998,"MEAN_MOTION_DOT":8.7e-07,"MEAN_MOTION_DDOT":0.0},{"OBJECT_NAME":"ONEWEB-0011","OBJECT_ID":"2019-010F","EPOCH":"2026-05-04T23:00:26.583264","MEAN_MOTION":13.15547724,"ECCENTRICITY":0.0001627,"INCLINATION":87.8974,"RA_OF_ASC_NODE":267.8095,"ARG_OF_PERICENTER":97.5357,"MEAN_ANOMALY":262.5958,"EPHEMERIS_TYPE":0,"CLASSIFICATION_TYPE":"U","NORAD_CAT_ID":44062,"ELEMENT_SET_NO":999,"REV_AT_EPOCH":34573,"BSTAR":-0.00033662,"MEAN_MOTION_DOT":-1.14e-06,"MEAN_MOTION_DDOT":0.0},{"OBJECT_NAME":"ONEWEB-0013","OBJECT_ID":"2020-008A","EPOCH":"2026-05-05T05:26:59.375904","MEAN_MOTION":13.094508,"ECCENTRICITY":0.0002766,"INCLINATION":87.8516,"RA_OF_ASC_NODE":61.4871,"ARG_OF_PERICENTER":92.9622,"MEAN_ANOMALY":267.1821,"EPHEMERIS_TYPE":0,"CLASSIFICATION_TYPE":"U","NORAD_CAT_ID":45131,"ELEMENT_SET_NO":999,"REV_AT_EPOCH":30044,"BSTAR":-0.0017410000000000001,"MEAN_MOTION_DOT":-5.87e-06,"MEAN_MOTION_DDOT":0.0},{"OBJECT_NAME":"ONEWEB-0017","OBJECT_ID":"2020-008B","EPOCH":"2026-05-04T18:45:11.146464","MEAN_MOTION":13.10369852,"ECCENTRICITY":0.0001801,"INCLINATION":87.8849,"RA_OF_ASC_NODE":44.9063,"ARG_OF_PERICENTER":72.0453,"MEAN_ANOMALY":288.0871,"EPHEMERIS_TYPE":0,"CLASSIFICATION_TYPE":"U","NORAD_CAT_ID":45132,"ELEMENT_SET_NO":999,"REV_AT_EPOCH":30226,"BSTAR":0.00081334,"MEAN_MOTION_DOT":2.97e-06,"MEAN_MOTION_DDOT":0.0},{"OBJECT_NAME":"ONEWEB-0020","OBJECT_ID":"2020-008C","EPOCH":"2026-05-05T05:01:52.929696","MEAN_MOTION":13.10376274,"ECCENTRICITY":0.0001895,"INCLINATION":87.8869,"RA_OF_ASC_NODE":44.8167,"ARG_OF_PERICENTER":77.8725,"MEAN_ANOMALY":282.2615,"EPHEMERIS_TYPE":0,"CLASSIFICATION_TYPE":"U","NORAD_CAT_ID":45133,"ELEMENT_SET_NO":999,"REV_AT_EPOCH":30271,"BSTAR":0.0006754700000000001,"MEAN_MOTION_DOT":2.48e-06,"MEAN_MOTION_DDOT":0.0},{"OBJECT_NAME":"ONEWEB-0021","OBJECT_ID":"2020-008D","EPOCH":"2026-05-05T05:23:24.971712","MEAN_MOTION":13.10373587,"ECCENTRICITY":0.0001955,"INCLINATION":87.8852,"RA_OF_ASC_NODE":44.833,"ARG_OF_PERICENTER":77.1706,"MEAN_ANOMALY":282.964,"EPHEMERIS_TYPE":0,"CLASSIFICATION_TYPE":"U","NORAD_CAT_ID":45134,"ELEMENT_SET_NO":999,"REV_AT_EPOCH":30302,"BSTAR":0.0019128,"MEAN_MOTION_DOT":6.8e-06,"MEAN_MOTION_DDOT":0.0},{"OBJECT_NAME":"ONEWEB-0023","OBJECT_ID":"2020-008F","EPOCH":"2026-05-05T05:38:56.776704","MEAN_MOTION":13.10369684,"ECCENTRICITY":0.0001918,"INCLINATION":87.8853,"RA_OF_ASC_NODE":44.8106,"ARG_OF_PERICENTER":83.1625,"MEAN_ANOMALY":276.972,"EPHEMERIS_TYPE":0,"CLASSIFICATION_TYPE":"U","NORAD_CAT_ID":45136,"ELEMENT_SET_NO":999,"REV_AT_EPOCH":30245,"BSTAR":0.0013931,"MEAN_MOTION_DOT":4.99e-06,"MEAN_MOTION_DDOT":0.0},{"OBJECT_NAME":"ONEWEB-0024","OBJECT_ID":"2020-008G","EPOCH":"2026-05-05T06:49:26.812704","MEAN_MOTION":13.10376255,"ECCENTRICITY":0.000189,"INCLINATION":87.8868,"RA_OF_ASC_NODE":44.7912,"ARG_OF_PERICENTER":76.4987,"MEAN_ANOMALY":283.6351,"EPHEMERIS_TYPE":0,"CLASSIFICATION_TYPE":"U","NORAD_CAT_ID":45137,"ELEMENT_SET_NO":999,"REV_AT_EPOCH":30262,"BSTAR":0.00028252,"MEAN_MOTION_DOT":1.11e-06,"MEAN_MOTION_DDOT":0.0},{"OBJECT_NAME":"ONEWEB-0025","OBJECT_ID":"2020-008H","EPOCH":"2026-05-05T04:58:52.749408","MEAN_MOTION":13.10082782,"ECCENTRICITY":0.0002142,"INCLINATION":87.8873,"RA_OF_ASC_NODE":44.7947,"ARG_OF_PERICENTER":43.5591,"MEAN_ANOMALY":316.5705,"EPHEMERIS_TYPE":0,"CLASSIFICATION_TYPE":"U","NORAD_CAT_ID":45138,"ELEMENT_SET_NO":999,"REV_AT_EPOCH":30294,"BSTAR":0.00025965,"MEAN_MOTION_DOT":1.03e-06,"MEAN_MOTION_DDOT":0.0},{"OBJECT_NAME":"ONEWEB-0026","OBJECT_ID":"2020-008J","EPOCH":"2026-05-05T06:42:52.353504","MEAN_MOTION":13.11417055,"ECCENTRICITY":0.0001665,"INCLINATION":87.8927,"RA_OF_ASC_NODE":29.6,"ARG_OF_PERICENTER":75.571,"MEAN_ANOMALY":284.5603,"EPHEMERIS_TYPE":0,"CLASSIFICATION_TYPE":"U","NORAD_CAT_ID":45139,"ELEMENT_SET_NO":999,"REV_AT_EPOCH":30548,"BSTAR":0.00019657,"MEAN_MOTION_DOT":8.2e-07,"MEAN_MOTION_DDOT":0.0},{"OBJECT_NAME":"ONEWEB-0028","OBJECT_ID":"2020-008K","EPOCH":"2026-05-05T03:56:35.135520","MEAN_MOTION":13.10852957,"ECCENTRICITY":0.0002299,"INCLINATION":87.8921,"RA_OF_ASC_NODE":29.6271,"ARG_OF_PERICENTER":87.6825,"MEAN_ANOMALY":272.4566,"EPHEMERIS_TYPE":0,"CLASSIFICATION_TYPE":"U","NORAD_CAT_ID":45140,"ELEMENT_SET_NO":999,"REV_AT_EPOCH":30298,"BSTAR":7.194500000000001e-06,"MEAN_MOTION_DOT":1.5e-07,"MEAN_MOTION_DDOT":0.0},{"OBJECT_NAME":"ONEWEB-0032","OBJECT_ID":"2020-008L","EPOCH":"2026-05-05T05:47:23.334720","MEAN_MOTION":13.1034242,"ECCENTRICITY":0.000221,"INCLINATION":87.8858,"RA_OF_ASC_NODE":44.8161,"ARG_OF_PERICENTER":86.7196,"MEAN_ANOMALY":273.4184,"EPHEMERIS_TYPE":0,"CLASSIFICATION_TYPE":"U","NORAD_CAT_ID":45141,"ELEMENT_SET_NO":999,"REV_AT_EPOCH":30267,"BSTAR":-0.0071809000000000005,"MEAN_MOTION_DOT":-2.492e-05,"MEAN_MOTION_DDOT":0.0}]