ONEWEB-0012             
1 44057U 19010A   26125.23890525  .00000102  00000+0  23372-3 0  9993
2 44057  87.9098 237.3130 0002325 102.6580 257.4811 13.16595234345915
ONEWEB-0010             
1 44058U 19010B   26125.26423436  .00000036  00000+0  60747-4 0  9994
2 44058  87.9096 237.3032 0001740  92.5752 267.5578 13.16595218345962
ONEWEB-0008             
1 44059U 19010C   26125.28956294  .00000094  00000+0  21313-3 0  9999
2 44059  87.9093 237.2949 0001788 109.6248 250.5076 13.16593121346088
ONEWEB-0007             
1 44060U 19010D   26125.13848533  .00000052  00000+0  10326-3 0  9997
2 44060  87.8961 267.8048 0001992  90.0774 270.0585 13.15548814345715
ONEWEB-0006             
1 44061U 19010E   26125.29456474  .00000087  00000+0  19770-3 0  9994
2 44061  87.8974 267.7335 0001763  92.6770 267.4563 13.15548995345781
ONEWEB-0011             
1 44062U 19010F   26124.95864101 -.00000114  00000+0 -33662-3 0  9996
2 44062  87.8974 267.8095 0001627  97.5357 262.5958 13.15547724345738
ONEWEB-0013             
1 45131U 20008A   26125.22707611 -.00000587  00000+0 -17410-2 0  9992
2 45131  87.8516  61.4871 0002766  92.9622 267.1821 13.09450800300447
ONEWEB-0017             
1 45132U 20008B   26124.78137901  .00000297  00000+0  81334-3 0  9995
2 45132  87.8849  44.9063 0001801  72.0453 288.0871 13.10369852302263
ONEWEB-0020             
1 45133U 20008C   26125.20964039  .00000248  00000+0  67547-3 0  9990
2 45133  87.8869  44.8167 0001895  77.8725 282.2615 13.10376274302716
ONEWEB-0021             
1 45134U 20008D   26125.22459458  .00000680  00000+0  19128-2 0  9998
2 45134  87.8852  44.8330 0001955  77.1706 282.9640 13.10373587303024
ONEWEB-0023             
1 45136U 20008F   26125.23537936  .00000499  00000+0  13931-2 0  9993
2 45136  87.8853  44.8106 0001918  83.1625 276.9720 13.10369684302455
ONEWEB-0024             
1 45137U 20008G   26125.28433811  .00000111  00000+0  28252-3 0  9990
2 45137  87.8868  44.7912 0001890  76.4987 283.6351 13.10376255302627
ONEWEB-0025             
1 45138U 20008H   26125.20755497  .00000103  00000+0  25965-3 0  9999
2 45138  87.8873  44.7947 0002142  43.5591 316.5705 13.10082782302942
ONEWEB-0026             
1 45139U 20008J   26125.27977261  .00000082  00000+0  19657-3 0  9999
2 45139  87.8927  29.6000 0001665  75.5710 284.5603 13.11417055305481
ONEWEB-0028             
1 45140U 20008K   26125.16429555  .00000015  00000+0  71945-5 0  9993
2 45140  87.8921  29.6271 0002299  87.6825 272.4566 13.10852957302981
ONEWEB-0032             
1 45141U 20008L   26125.24124230 -.00002492  00000+0 -71809-2 0  9994
2 45141  87.8858  44.8161 0002210  86.7196 273.4184 13.10342420302674
